#dP2019  1  5  0  0  0.00000000      96 __u+U IGS08 FIT  IAC
## 2034 518400.00000000   900.00000000 58488 0.0000000000000
+   95   C01C02C03C04C05C06C07C09C10C11C12C13C14C30C32E01E02
+        E03E04E05E07E08E09E11E12E13E14E15E18E19E21E24E25E26
+        E27E30E31E33E36G01G02G03G05G06G07G08G09G10G11G12G13
+        G14G15G16G17G18G19G20G21G22G23G24G25G26G27G28G29G30
+        G31G32J01J02J03R01R02R03R04R05R07R08R09R10R11R13R14
+        R15R17R18R19R20R21R22R23R24R26  0  0  0  0  0  0  0
++        12 12 12 12 12  8  8  8  8  8  8  8  8  0 14  6  5
++         6  5  6  6  6  6  5  5  6  5  6  5  5  5  6  5  5
++         5  5  5  6  5  3  3  3  3  3  3  3  3  3  3  3  3
++         3  3  3  3  4  3  3  3  3  3  3  3  3  3  3  3  3
++         3  3  9 10 10  5  5  5  5  5  5  5  5  5  5  5  5
++         5  5  5  5  5  5  5  5  5  8  0  0  0  0  0  0  0
%c M  cc GPS ccc cccc cccc cccc cccc ccccc ccccc ccccc ccccc
%c cc cc ccc ccc cccc cccc cccc cccc ccccc ccccc ccccc ccccc
%f  1.2500000  1.025000000  0.00000000000  0.000000000000000
%f  0.0000000  0.000000000  0.00000000000  0.000000000000000
%i    0    0    0    0      0      0      0      0         0
%i    0    0    0    0      0      0      0      0         0
/* INFORMATION & ANALYSIS CENTER (IAC)            FINAL DATA
/* S/V CLOCKS ARE ALIGNED TO GPS & GLONASS TIME RESPECTIVELY
/* USING THE BROADCAST EPHEMERIS                            
/* PCV:IGS14_2032 OL/AL:FES2004  NONE     YN ORB:CoN CLK:CoN
*  2019 01 05 21 45  0.00000000
PC01 -32301.150933  27076.176989   -287.991330     51.720778
PC02   4416.678883  41941.891758   1081.571302   -223.827894
PC03 -14777.742154  39528.769036    175.001243    -85.146639
PC04 -39614.332531  14365.424926    -33.891630   -226.253415
PC05  21905.484958  36024.574373   1197.725043    -31.849628
PC06 -19913.929858  37365.586361   1472.906355    238.060069
PC07  -8875.692511  27417.045045 -30526.833112    215.287095
PC09 -10557.303920  38702.326915 -13322.747751    425.728909
PC10   5439.416663  35208.701969 -22109.649358   -383.055825
PC11 -15677.853429  -6586.475052 -22050.441475    -78.163289
PC12  10980.900984 -20716.023306 -15132.002390    325.323560
PC13  -6061.201117  23576.999224  34439.896229   -468.535985
PC14  -9537.714870 -24606.823594   9042.881859    646.394344
PC30   8014.710325  13913.709590  22831.512615 999999.999999
PC32  -1695.933934  26825.178015   7504.818200   -200.527102
PE01  23004.465568   7014.474888  17261.785524   -514.543500
PE02 -22984.162409  -6966.971244 -17290.310406     42.115622
PE03 -17975.928630   2823.824707  23338.194099   -118.908904
PE04  15116.494054 -22270.128715 -12318.195601   -194.003124
PE05 -10326.826841 -18394.505827  20758.993512    130.081934
PE07  -3332.365318  28778.815194  -6051.283950   -107.134343
PE08 -14816.540807  22468.888467  12304.321455   6429.169372
PE09   3124.776574 -28808.774600   6072.354405   6566.951842
PE11   3403.678050 -17374.959359 -23715.899854   5719.092236
PE12  23000.606286 -14474.878240 -11706.892823   5877.729201
PE13  -3521.565459  17349.388689  23734.147463    381.371638
PE14  17759.598454 -19538.257017   1195.600343   6464.218430
PE15 -22660.913689  14726.921141  12084.901064    923.756748
PE18 -24898.162292  11787.594798 -13361.591518   5628.182553
PE19  17524.912563   -620.307770 -23849.826899     -9.351885
PE21  20618.073822  21227.669696   -745.114239   -512.983157
PE24  -6341.033745 -22899.600473  17630.394276   6301.115189
PE25 -20592.211337 -21247.673636    794.936104   1932.560224
PE26  17612.900295  10200.672926  21504.804519   5053.055756
PE27   6004.406075  22690.721531 -18033.685981    555.630837
PE30 -11798.095196  11243.686341 -24714.448297   5211.936338
PE31  12123.278830 -10846.350834  24738.973175    940.091358
PE33  28624.553703  -3462.351120   6705.453651    847.865991
PE36 -17765.806573  -9820.367635 -21530.767480    763.091049
PG01 -15934.710835 -13414.066745 -16825.796764   -140.516717
PG02  -7790.053157  14702.614602  21259.951463   -105.311208
PG03 -13345.371067 -22513.535948   4700.307749    175.178720
PG05    -60.676176  22737.983076  13438.328222      0.693665
PG06 -20630.034431   7846.256441  14832.122095    302.634329
PG07 -25561.376373  -6705.016757   4753.724839     57.136691
PG08   1936.374735 -21178.733342 -15745.418220   -128.065754
PG09 -16024.688094  -3198.490726  20892.731288    475.182641
PG10  15015.797180  -3276.736867 -21629.440795    140.449231
PG11 -10335.275069 -13665.637847 -20800.758848   -679.317682
PG12  10163.174015  24557.680507   1907.658598    278.722143
PG13 -10292.748600  21903.405851 -11023.594709    -79.283801
PG14  18832.425105 -18255.171190  -3216.141388    -93.609048
PG15   2980.631176  20002.649441 -17271.519817   -333.432230
PG16   1884.323407 -22462.916611  13525.530644    -10.951273
PG17 -20171.181269  11939.703832 -11978.566603     -8.769820
PG18  -5234.083185 -15578.920359 -21367.612872     12.876328
PG19 -19567.014338  17670.221373  -3954.718322   -366.415337
PG20  18909.727765   6112.073974 -17799.476045    520.794050
PG21  26163.466928   3672.491437   2961.232726   -274.415241
PG22 -10229.573273 -24348.507884  -2800.488495   -615.969428
PG23  -9641.332982 -13071.242650  21265.072397   -201.417904
PG24  11565.515056  14738.456216 -19088.897458    -60.404490
PG25  16212.255844  17603.608616  11600.978893   -701.711792
PG26   8036.497381 -15870.690093  19663.084949     88.203293
PG27  10440.123027 -23021.533498  -7752.907362    -44.051004
PG28 -14856.837015    410.190098 -21386.286608    761.018956
PG29  13140.283347   7028.684533  21964.383844    299.746986
PG30 -25776.606135    783.586733  -6704.000971    -31.206054
PG31  18779.360295  -9080.621238  16707.169169     67.807955
PG32  19642.972525 -14293.046529 -10580.151491   -287.780769
PJ01 -25073.814492  26797.581297  25784.410194   -221.916037
PJ02 -26270.979248  14797.687078 -25084.044220     -0.809657
PJ03 -24457.743797  34415.445055   1182.929689      3.242169
PR01   5572.490764  20842.778807 -13603.077198     37.501198
PR02  10824.701379   1572.638234 -23014.086074    347.960887
PR03   9112.865042 -16840.099656 -16796.861443    153.687550
PR04   1761.561259 -25435.939373   -336.659411    290.196523
PR05  -6096.614350 -19325.993529  15480.655318     19.307117
PR07  -9018.748150  17266.757815  16516.334050    -55.252737
PR08  -2199.603177  25393.141322   1161.478631     19.705101
PR09 -21256.618428  -7254.603008 -12137.171778     47.475206
PR10 -11995.928954   4177.390866 -22152.355109     39.034530
PR11   5017.190343  14955.605015 -20017.347005    -52.566848
PR13  21537.292915   7779.549928  11223.031215    -18.685431
PR14  12027.649556  -4519.970322  22047.024413     34.651898
PR15  -4281.381640 -14529.948304  20542.690664     99.162039
PR17  21759.691709 -12703.871245  -4086.696196    193.791762
PR18   9947.413635 -14257.333159 -18621.901061     29.297995
PR19  -7089.834608  -8171.151723 -23092.740691    -62.292116
PR20 -21575.005143   3391.181787 -13202.886964   -364.669123
PR21 -21512.049063  12862.045964   4671.323651    -23.934106
PR22  -7814.577687  13815.381228  20021.375360    -64.340912
PR23  11712.731316   5391.593564  22008.301095    201.389090
PR24  22035.702662  -4642.225413  11951.640613   -175.714717
PR26 -20590.509196   2542.183125 -14804.405805     14.428939
EOF
